[{"OBJECT_NAME":"STARLINK-5537","OBJECT_ID":"2023-013BF","EPOCH":"2026-03-09T00:38:05.207424","MEAN_MOTION":15.02535629,"ECCENTRICITY":0.00019125,"INCLINATION":43.0061,"RA_OF_ASC_NODE":316.5818,"ARG_OF_PERICENTER":251.5683,"MEAN_ANOMALY":108.4951,"EPHEMERIS_TYPE":0,"CLASSIFICATION_TYPE":"U","NORAD_CAT_ID":55384,"ELEMENT_SET_NO":999,"REV_AT_EPOCH":17146,"BSTAR":5.9815033e-5,"MEAN_MOTION_DOT":6.04e-6,"MEAN_MOTION_DDOT":0},{"OBJECT_NAME":"COSMOS 2251 DEB","OBJECT_ID":"1993-036BC","EPOCH":"2026-03-09T15:03:07.178688","MEAN_MOTION":15.0931248,"ECCENTRICITY":0.0027782,"INCLINATION":73.8339,"RA_OF_ASC_NODE":121.9492,"ARG_OF_PERICENTER":197.5511,"MEAN_ANOMALY":285.2146,"EPHEMERIS_TYPE":0,"CLASSIFICATION_TYPE":"U","NORAD_CAT_ID":33811,"ELEMENT_SET_NO":999,"REV_AT_EPOCH":91327,"BSTAR":0.0014101,"MEAN_MOTION_DOT":0.00022722,"MEAN_MOTION_DDOT":0}]
